CTC1_L_00120001-01
1 10000U 24561LE  26075.70031250  .00000000  00000+0  00000-0 0  9996
2 10000  45.0000   0.0000 0000000   0.0000   0.0000 14.24551792    13
CTC1_L_00120001-02
1 10001U 22826BF  26075.70031250  .00000000  00000+0  00000-0 0  9999
2 10001  45.0000   0.0000 0000000   0.0000  90.0000 14.24551792    13
CTC1_L_00120001-03
1 10002U 23061SJ  26075.70031250  .00000000  00000+0  00000-0 0  9992
2 10002  45.0000   0.0000 0000000   0.0000 180.0000 14.24551792    14
CTC1_L_00120001-04
1 10003U 23225FQ  26075.70031250  .00000000  00000+0  00000-0 0  9995
2 10003  45.0000   0.0000 0000000   0.0000 270.0000 14.24551792    15
CTC1_L_00120002-01
1 10004U 25881ZA  26075.70031250  .00000000  00000+0  00000-0 0  9996
2 10004  45.0000  12.0000 0000000   0.0000  12.0000 14.24551792    13
CTC1_L_00120002-02
1 10005U 25630SI  26075.70031250  .00000000  00000+0  00000-0 0  9999
2 10005  45.0000  12.0000 0000000   0.0000 102.0000 14.24551792    14
CTC1_L_00120002-03
1 10006U 23840IQ  26075.70031250  .00000000  00000+0  00000-0 0  9991
2 10006  45.0000  12.0000 0000000   0.0000 192.0000 14.24551792    14
CTC1_L_00120002-04
1 10007U 26615FU  26075.70031250  .00000000  00000+0  00000-0 0  9995
2 10007  45.0000  12.0000 0000000   0.0000 282.0000 14.24551792    15
CTC1_L_00120003-01
1 10008U 22907OL  26075.70031250  .00000000  00000+0  00000-0 0  9996
2 10008  45.0000  24.0000 0000000   0.0000  24.0000 14.24551792    13
CTC1_L_00120003-02
1 10009U 25903AO  26075.70031250  .00000000  00000+0  00000-0 0  9996
2 10009  45.0000  24.0000 0000000   0.0000 114.0000 14.24551792    14
CTC1_L_00120003-03
1 10010U 26289FQ  26075.70031250  .00000000  00000+0  00000-0 0  9996
2 10010  45.0000  24.0000 0000000   0.0000 204.0000 14.24551792    16
CTC1_L_00120003-04
1 10011U 26515NE  26075.70031250  .00000000  00000+0  00000-0 0  9999
2 10011  45.0000  24.0000 0000000   0.0000 294.0000 14.24551792    16
CTC1_L_00120004-01
1 10012U 24947JN  26075.70031250  .00000000  00000+0  00000-0 0  9997
2 10012  45.0000  36.0000 0000000   0.0000  36.0000 14.24551792    14
CTC1_L_00120004-02
1 10013U 25762HO  26075.70031250  .00000000  00000+0  00000-0 0  9994
2 10013  45.0000  36.0000 0000000   0.0000 126.0000 14.24551792    15
CTC1_L_00120004-03
1 10014U 25341ZA  26075.70031250  .00000000  00000+0  00000-0 0  9998
2 10014  45.0000  36.0000 0000000   0.0000 216.0000 14.24551792    16
CTC1_L_00120004-04
1 10015U 24919BM  26075.70031250  .00000000  00000+0  00000-0 0  9999
2 10015  45.0000  36.0000 0000000   0.0000 306.0000 14.24551792    17
CTC1_L_00120005-01
1 10016U 22225DQ  26075.70031250  .00000000  00000+0  00000-0 0  9998
2 10016  45.0000  48.0000 0000000   0.0000  48.0000 14.24551792    14
CTC1_L_00120005-02
1 10017U 23631AJ  26075.70031250  .00000000  00000+0  00000-0 0  9991
2 10017  45.0000  48.0000 0000000   0.0000 138.0000 14.24551792    15
CTC1_L_00120005-03
1 10018U 25080XG  26075.70031250  .00000000  00000+0  00000-0 0  9992
2 10018  45.0000  48.0000 0000000   0.0000 228.0000 14.24551792    16
CTC1_L_00120005-04
1 10019U 24240NC  26075.70031250  .00000000  00000+0  00000-0 0  9990
2 10019  45.0000  48.0000 0000000   0.0000 318.0000 14.24551792    17
CTC1_L_00120006-01
1 10020U 25049BQ  26075.70031250  .00000000  00000+0  00000-0 0  9990
2 10020  45.0000  60.0000 0000000   0.0000  60.0000 14.24551792    17
CTC1_L_00120006-02
1 10021U 24793GA  26075.70031250  .00000000  00000+0  00000-0 0  9996
2 10021  45.0000  60.0000 0000000   0.0000 150.0000 14.24551792    18
CTC1_L_00120006-03
1 10022U 22679ZQ  26075.70031250  .00000000  00000+0  00000-0 0  9998
2 10022  45.0000  60.0000 0000000   0.0000 240.0000 14.24551792    19
CTC1_L_00120006-04
1 10023U 22601GY  26075.70031250  .00000000  00000+0  00000-0 0  9994
2 10023  45.0000  60.0000 0000000   0.0000 330.0000 14.24551792    10
CTC1_L_00120007-01
1 10024U 22848UE  26075.70031250  .00000000  00000+0  00000-0 0  9998
2 10024  45.0000  72.0000 0000000   0.0000  72.0000 14.24551792    17
CTC1_L_00120007-02
1 10025U 22502DT  26075.70031250  .00000000  00000+0  00000-0 0  9996
2 10025  45.0000  72.0000 0000000   0.0000 162.0000 14.24551792    18
CTC1_L_00120007-03
1 10026U 24234NN  26075.70031250  .00000000  00000+0  00000-0 0  9991
2 10026  45.0000  72.0000 0000000   0.0000 252.0000 14.24551792    19
CTC1_L_00120007-04
1 10027U 25904DE  26075.70031250  .00000000  00000+0  00000-0 0  9997
2 10027  45.0000  72.0000 0000000   0.0000 342.0000 14.24551792    10
CTC1_L_00120008-01
1 10028U 25566TR  26075.70031250  .00000000  00000+0  00000-0 0  9992
2 10028  45.0000  84.0000 0000000   0.0000  84.0000 14.24551792    17
CTC1_L_00120008-02
1 10029U 23893XP  26075.70031250  .00000000  00000+0  00000-0 0  9994
2 10029  45.0000  84.0000 0000000   0.0000 174.0000 14.24551792    18
CTC1_L_00120008-03
1 10030U 23916BC  26075.70031250  .00000000  00000+0  00000-0 0  9992
2 10030  45.0000  84.0000 0000000   0.0000 264.0000 14.24551792    10
CTC1_L_00120008-04
1 10031U 25495CJ  26075.70031250  .00000000  00000+0  00000-0 0  9997
2 10031  45.0000  84.0000 0000000   0.0000 354.0000 14.24551792    11
CTC1_L_00120009-01
1 10032U 25481JR  26075.70031250  .00000000  00000+0  00000-0 0  9993
2 10032  45.0000  96.0000 0000000   0.0000  96.0000 14.24551792    18
CTC1_L_00120009-02
1 10033U 25545OO  26075.70031250  .00000000  00000+0  00000-0 0  9995
2 10033  45.0000  96.0000 0000000   0.0000 186.0000 14.24551792    19
CTC1_L_00120009-03
1 10034U 26776LG  26075.70031250  .00000000  00000+0  00000-0 0  9993
2 10034  45.0000  96.0000 0000000   0.0000 276.0000 14.24551792    10
CTC1_L_00120009-04
1 10035U 23837OA  26075.70031250  .00000000  00000+0  00000-0 0  9999
2 10035  45.0000  96.0000 0000000   0.0000   6.0000 14.24551792    12
CTC1_L_00120010-01
1 10036U 26020GJ  26075.70031250  .00000000  00000+0  00000-0 0  9997
2 10036  45.0000 108.0000 0000000   0.0000 108.0000 14.24551792    10
CTC1_L_00120010-02
1 10037U 23659OF  26075.70031250  .00000000  00000+0  00000-0 0  9993
2 10037  45.0000 108.0000 0000000   0.0000 198.0000 14.24551792    10
CTC1_L_00120010-03
1 10038U 25417HJ  26075.70031250  .00000000  00000+0  00000-0 0  9998
2 10038  45.0000 108.0000 0000000   0.0000 288.0000 14.24551792    11
CTC1_L_00120010-04
1 10039U 26950AJ  26075.70031250  .00000000  00000+0  00000-0 0  9992
2 10039  45.0000 108.0000 0000000   0.0000  18.0000 14.24551792    13
CTC1_L_00120011-01
1 10040U 24224ZJ  26075.70031250  .00000000  00000+0  00000-0 0  9996
2 10040  45.0000 120.0000 0000000   0.0000 120.0000 14.24551792    13
CTC1_L_00120011-02
1 10041U 26892VW  26075.70031250  .00000000  00000+0  00000-0 0  9990
2 10041  45.0000 120.0000 0000000   0.0000 210.0000 14.24551792    14
CTC1_L_00120011-03
1 10042U 22227RA  26075.70031250  .00000000  00000+0  00000-0 0  9999
2 10042  45.0000 120.0000 0000000   0.0000 300.0000 14.24551792    15
CTC1_L_00120011-04
1 10043U 22947FT  26075.70031250  .00000000  00000+0  00000-0 0  9999
2 10043  45.0000 120.0000 0000000   0.0000  30.0000 14.24551792    16
CTC1_L_00120012-01
1 10044U 25167O   26075.70031250  .00000000  00000+0  00000-0 0  9997
2 10044  45.0000 132.0000 0000000   0.0000 132.0000 14.24551792    13
CTC1_L_00120012-02
1 10045U 24043RA  26075.70031250  .00000000  00000+0  00000-0 0  9990
2 10045  45.0000 132.0000 0000000   0.0000 222.0000 14.24551792    14
CTC1_L_00120012-03
1 10046U 22516DE  26075.70031250  .00000000  00000+0  00000-0 0  9994
2 10046  45.0000 132.0000 0000000   0.0000 312.0000 14.24551792    15
CTC1_L_00120012-04
1 10047U 22604EK  26075.70031250  .00000000  00000+0  00000-0 0  9993
2 10047  45.0000 132.0000 0000000   0.0000  42.0000 14.24551792    16
CTC1_L_00120013-01
1 10048U 24883ZM  26075.70031250  .00000000  00000+0  00000-0 0  9995
2 10048  45.0000 144.0000 0000000   0.0000 144.0000 14.24551792    13
CTC1_L_00120013-02
1 10049U 23920RM  26075.70031250  .00000000  00000+0  00000-0 0  9997
2 10049  45.0000 144.0000 0000000   0.0000 234.0000 14.24551792    14
CTC1_L_00120013-03
1 10050U 25689CD  26075.70031250  .00000000  00000+0  00000-0 0  9993
2 10050  45.0000 144.0000 0000000   0.0000 324.0000 14.24551792    16
CTC1_L_00120013-04
1 10051U 25276SW  26075.70031250  .00000000  00000+0  00000-0 0  9996
2 10051  45.0000 144.0000 0000000   0.0000  54.0000 14.24551792    17
CTC1_L_00120014-01
1 10052U 23652XP  26075.70031250  .00000000  00000+0  00000-0 0  9993
2 10052  45.0000 156.0000 0000000   0.0000 156.0000 14.24551792    14
CTC1_L_00120014-02
1 10053U 23295NV  26075.70031250  .00000000  00000+0  00000-0 0  9997
2 10053  45.0000 156.0000 0000000   0.0000 246.0000 14.24551792    15
CTC1_L_00120014-03
1 10054U 25780NU  26075.70031250  .00000000  00000+0  00000-0 0  9999
2 10054  45.0000 156.0000 0000000   0.0000 336.0000 14.24551792    16
CTC1_L_00120014-04
1 10055U 26141ZN  26075.70031250  .00000000  00000+0  00000-0 0  9992
2 10055  45.0000 156.0000 0000000   0.0000  66.0000 14.24551792    17
CTC1_L_00120015-01
1 10056U 23159UH  26075.70031250  .00000000  00000+0  00000-0 0  9999
2 10056  45.0000 168.0000 0000000   0.0000 168.0000 14.24551792    14
CTC1_L_00120015-02
1 10057U 26942IJ  26075.70031250  .00000000  00000+0  00000-0 0  9993
2 10057  45.0000 168.0000 0000000   0.0000 258.0000 14.24551792    15
CTC1_L_00120015-03
1 10058U 25741ZO  26075.70031250  .00000000  00000+0  00000-0 0  9990
2 10058  45.0000 168.0000 0000000   0.0000 348.0000 14.24551792    16
CTC1_L_00120015-04
1 10059U 23869ID  26075.70031250  .00000000  00000+0  00000-0 0  9990
2 10059  45.0000 168.0000 0000000   0.0000  78.0000 14.24551792    17
CTC1_L_00120016-01
1 10060U 24820IQ  26075.70031250  .00000000  00000+0  00000-0 0  9990
2 10060  45.0000 180.0000 0000000   0.0000 180.0000 14.24551792    17
CTC1_L_00120016-02
1 10061U 22212EJ  26075.70031250  .00000000  00000+0  00000-0 0  9994
2 10061  45.0000 180.0000 0000000   0.0000 270.0000 14.24551792    18
